
HORACIO                 
1 59098U 24043A   24338.71986323  .00006020  00000+0  57026-3 0  9993
2 59098  97.7871 100.0723 0012808  91.6742 268.5945 14.93914362 40828
MUSAT2                  
1 59099U 24043B   24338.28887283  .00015348  00000+0  13202-2 0  9991
2 59099  97.7780 100.0662 0010124  92.1485 268.0897 14.97445473 40815
ICEYE-X38               
1 59100U 24043C   24338.82667419  .00014191  00000+0  10524-2 0  9990
2 59100  97.7769 102.4414 0003427 181.4450 178.6766 15.03190351 41001
METHANESAT              
1 59101U 24043D   24338.34925211  .00009581  00000+0  88852-3 0  9992
2 59101  97.7815  99.7740 0010620  87.5324 272.7112 14.94612685 40797
ICEYE-X37               
1 59102U 24043E   24338.60616221  .00010631  00000+0  88314-3 0  9991
2 59102  97.7796 100.9974 0008738  80.0973 280.1235 14.98896962 40891
ICEYE-X36               
1 59103U 24043F   24338.34827432  .00013966  00000+0  11008-2 0  9990
2 59103  97.7751 100.8707 0006084  47.4707 312.7029 15.00865863 40871
PE2_FLT2  (TYVAK-0262)  
1 59104U 24043G   24338.77491851  .00010077  00000+0  89681-3 0  9993
2 59104  97.7793 100.4945 0008805  78.7055 281.5155 14.96230321 40887
PE2_FLT1 (TYVAK-0261)   
1 59105U 24043H   24338.77471695  .00010146  00000+0  90314-3 0  9990
2 59105  97.7788 100.5082 0009826  72.2964 287.9329 14.96213669 40886
RROCI-2                 
1 59106U 24043J   24338.30474489  .00007725  00000+0  70803-3 0  9994
2 59106  97.7812  99.9160 0009557  73.8677 286.3595 14.95152018 40801
BRO-13                  
1 59107U 24043K   24338.83449758  .00004700  00000+0  44643-3 0  9997
2 59107  97.7863 100.5097 0010743  69.6836 290.5538 14.93938049 40870
BRO-12                  
1 59108U 24043L   24338.79089649  .00003099  00000+0  29450-3 0  9991
2 59108  97.7845 100.5142 0009832  65.0939 295.1302 14.94185358 40871
2024-043M               
1 59109U 24043M   24338.83414344  .00738494  00000+0  34228-2 0  9993
2 59109  97.4720 107.5786 0010016 312.6220  47.4203 15.81523783 41999
IRIS-F1                 
1 59110U 24043N   24338.31513805  .00036458  00000+0  12193-2 0  9998
2 59110  97.4835 101.5256 0009790  83.7595 276.4760 15.30850856 41565
2024-043P               
1 59111U 24043P   24338.30286849  .00043427  00000+0  14412-2 0  9993
2 59111  97.4912 101.9287 0011725  62.5409 297.7022 15.31040278 41578
SONATE-2                
1 59112U 24043Q   24338.60709792  .00023496  00000+0  90335-3 0  9997
2 59112  97.4954 101.6353 0013600  62.6871 297.5751 15.26329029 41579
2024-043R               
1 59113U 24043R   24338.59594539  .00040792  00000+0  13436-2 0  9991
2 59113  97.4909 102.3011 0011336  60.0884 300.1481 15.31302056 41623
2024-043S               
1 59114U 24043S   24338.29081916  .00052048  00000+0  16411-2 0  9992
2 59114  97.4962 102.2531 0011367  51.2202 309.0053 15.32644313 41583
LEMUR-2-CHARLIE-ROSE    
1 59115U 24043T   24338.35055395  .01254486  73625-3  37243-2 0  9996
2 59115  97.4587 106.8471 0010605 315.6238  44.4185 15.92548956 41915
LEMUR-2-FELDHUS         
1 59116U 24043U   24338.61853922  .00731687  00000+0  31470-2 0  9999
2 59116  97.4589 106.9328 0009099 327.0183  33.0517 15.83171008 41958
CONTECSAT-1             
1 59117U 24043V   24338.83010121  .00016260  00000+0  70097-3 0  9992
2 59117  97.4999 101.4590 0014662  60.2976 299.9718 15.22542602 41572
LACE-1                  
1 59118U 24043W   24338.79995939  .00072219  00000+0  18258-2 0  9993
2 59118  97.4865 103.7036 0007847  53.6571 306.5397 15.39494680 41735
2024-043X               
1 59119U 24043X   24338.32538079  .00070822  00000+0  19065-2 0  9996
2 59119  97.4850 102.8163 0006783  49.4276 310.7558 15.37574255 41645
TIGER-8                 
1 59120U 24043Y   24338.79356505  .00039052  00000+0  13214-2 0  9991
2 59120  97.4937 102.4558 0010448  60.0482 300.1794 15.30450534 41649
LYNK TOWER 5            
1 59121U 24043Z   24338.31442416  .00012716  00000+0  56640-3 0  9996
2 59121  97.4963 100.6128 0013988  64.6782 295.5901 15.21494586 41481
NUSAT-44 (MARIA MITCHE*)
1 59122U 24043AA  24338.77705671  .00022793  00000+0  87064-3 0  9992
2 59122  97.4954 101.9993 0012058  57.5600 302.6803 15.26569773 41615
LYNK TOWER 6            
1 59123U 24043AB  24338.60873907  .00010261  00000+0  46577-3 0  9994
2 59123  97.4940 100.7414 0013920  65.4371 294.8313 15.20901023 41528
VSP ROSE                
1 59124U 24043AC  24338.81602981  .00008920  00000+0  39962-3 0  9999
2 59124  97.4940 101.0833 0013514  60.9102 299.3486 15.21400823 41567
2024-043AD              
1 59125U 24043AD  24338.30654558  .00014447  00000+0  60893-3 0  9999
2 59125  97.4974 101.1263 0012752  60.2902 299.9602 15.23358268 41515
YAM-6                   
1 59126U 24043AE  24338.58524070  .00015358  00000+0  64331-3 0  9998
2 59126  97.4915 101.1939 0011766  60.1092 300.1312 15.23566561 41558
JACKAL X-1L-001         
1 59127U 24043AF  24338.60575407  .00017789  00000+0  71182-3 0  9994
2 59127  97.4930 101.5115 0011090  57.6588 302.5722 15.25082817 41579
2024-043AG              
1 59128U 24043AG  24338.35132253  .00012865  00000+0  56196-3 0  9993
2 59128  97.4970 100.8876 0012881  60.5334 299.7185 15.22171103 41508
APEX ARIES 1            
1 59129U 24043AH  24338.32380958  .00027742  00000+0  10407-2 0  9992
2 59129  97.4907 101.5501 0010535  57.9786 302.2475 15.27144084 41557
GHOST-5                 
1 59130U 24043AJ  24338.58908196  .00017833  00000+0  71318-3 0  9991
2 59130  97.4932 101.5415 0011350  54.7912 305.4387 15.25098579 41577
MESON-1                 
1 59131U 24043AK  24338.35839739  .00012228  00000+0  53804-3 0  9996
2 59131  97.4970 100.8742 0013043  59.0190 301.2325 15.21934282 41507
LIZZIESAT               
1 59132U 24043AL  24338.29611974  .00009335  00000+0  42440-3 0  9998
2 59132  97.4953 100.5867 0013169  57.4980 302.7526 15.20886283 41484
GHOST-4                 
1 59133U 24043AM  24338.82873407  .00018037  00000+0  71768-3 0  9993
2 59133  97.4949 101.8980 0011984  53.5465 306.6875 15.25259643 41612
JACKAL X-1L-002         
1 59134U 24043AN  24338.59907541  .00018776  00000+0  73909-3 0  9994
2 59134  97.4930 101.6605 0011568  51.9150 308.3130 15.25615441 41587
VSP RF A1               
1 59135U 24043AP  24338.81419476  .00009177  00000+0  40893-3 0  9996
2 59135  97.4971 101.3466 0013279  53.7960 306.4501 15.21577851 41573
VSP RF C1               
1 59136U 24043AQ  24338.80091371  .00008492  00000+0  37622-3 0  9991
2 59136  97.4947 101.2758 0013090  52.3193 307.9227 15.21801172 41571
VSP RF B1               
1 59137U 24043AR  24338.80060424  .00008687  00000+0  38487-3 0  9993
2 59137  97.4948 101.2823 0012866  51.8423 308.3970 15.21796443 41570
2024-043AS              
1 59138U 24043AS  24338.31440001  .00572916  00000+0  35507-2 0  9993
2 59138  97.4660 106.2748 0008113 315.2362  44.8247 15.75428124 41882
2024-043AT              
1 59139U 24043AT  24338.79995433  .00514772  00000+0  33622-2 0  9992
2 59139  97.4649 106.6915 0008274 317.3113  42.7508 15.74364525 41942
SENTRY                  
1 59140U 24043AU  24338.30484534  .00033267  00000+0  11269-2 0  9994
2 59140  97.4891 102.1077 0009688  46.9920 313.2131 15.30457737 41582
TIGER-7                 
1 59141U 24043AV  24338.58991180  .00045224  00000+0  14323-2 0  9995
2 59141  97.4877 102.6692 0008244  40.3024 319.8828 15.32566939 41644
2024-043AW              
1 59142U 24043AW  24338.61020125  .00029665  00000+0  10325-2 0  9991
2 59142  97.4943 102.4824 0009946  39.4881 320.7082 15.29598785 41625
2024-043AX              
1 59143U 24043AX  24338.29977848  .00105521  00000+0  21990-2 0  9995
2 59143  97.4923 104.3992 0006462  12.1314 348.0089 15.45167847 41719
2024-043AY              
1 59144U 24043AY  24338.35095509  .00711540  00000+0  36461-2 0  9991
2 59144  97.4730 107.0160 0009431 314.5419  45.5076 15.79378330 41901
MH-1                    
1 59145U 24043AZ  24338.71071302  .00092338  00000+0  20381-2 0  9998
2 59145  97.4928 104.5775 0006687   6.7202 353.4134 15.43517183 41767
LEMUR-2-JOHNNYTRUONG    
1 59146U 24043BA  24338.59082457  .00023933  00000+0  86594-3 0  9992
2 59146  97.4868 102.1254 0008139  41.7507 318.4352 15.28388285 41617
LEMUR-2-ROCINANTE       
1 59147U 24043BB  24338.59206012  .00023989  00000+0  87172-3 0  9992
2 59147  97.4887 102.1931 0008781  37.7965 322.3890 15.28241419 41615
HAMMER                  
1 59148U 24043BC  24338.82319469  .00017399  00000+0  63954-3 0  9990
2 59148  97.4925 102.6781 0009804  26.9640 333.2106 15.27923561 41653
STARLINK-31312          
1 59152U 24044A   24338.22529128 -.00000839  00000+0 -12810-4 0  9994
2 59152  43.0047 155.5947 0002463 266.4252  93.6323 15.40708213 43453
STARLINK-31308          
1 59153U 24044B   24338.56366595  .00005707  00000+0  14395-3 0  9995
2 59153  43.0001 156.5199 0001074 265.2194  94.8540 15.40665466 43482
STARLINK-31270          
1 59154U 24044C   24338.56365278  .00002977  00000+0  12363-3 0  9992
2 59154  42.9995 189.3749 0001080 281.3982  78.6748 15.25897050 43095
STARLINK-31341          
1 59155U 24044D   24337.95430775 -.00001765  00000+0 -57644-4 0  9998
2 59155  43.0009 193.4305 0001336 262.7290  97.3409 15.25918724 42966
STARLINK-31338          
1 59156U 24044E   24338.01751290 -.00004483  00000+0 -16169-3 0  9991
2 59156  42.9971 193.0457 0001840 257.4492 102.6153 15.25897900 42971
STARLINK-31334          
1 59157U 24044F   24338.01527452 -.00002304  00000+0 -78348-4 0  9991
2 59157  42.9979 193.0329 0000595 291.1611  68.9177 15.25887518 42976
STARLINK-31297          
1 59158U 24044G   24338.62684917  .00000700  00000+0  36610-4 0  9991
2 59158  43.0033 188.9899 0001338 262.2275  97.8424 15.25911623 43103
